H1 CPF  1  DGF 2022 05 12 10  6321 larets     NONE      
H2   304206 5557    27944 2022 05 12 00 00 00 2022 05 19 00 00 00    30 1 1  0 0 0
H5  0.0650
H9
10 0 59717  10800.000000  0      -2484738.971       1556250.150      -6438572.039
10 0 59717  10830.000000  0      -2276223.255       1524157.126      -6522600.794
10 0 59717  10860.000000  0      -2065568.051       1489616.962      -6600032.471
10 0 59717  10890.000000  0      -1852995.601       1452655.550      -6670789.137
10 0 59717  10920.000000  0      -1638729.897       1413302.161      -6734799.519
10 0 59717  10950.000000  0      -1422996.457       1371589.428      -6791999.074
10 0 59717  10980.000000  0      -1206022.088       1327553.317      -6842330.048
10 0 59717  11010.000000  0       -988034.650       1281233.098      -6885741.528
10 0 59717  11040.000000  0       -769262.830       1232671.311      -6922189.489
10 0 59717  11070.000000  0       -549935.904       1181913.733      -6951636.831
10 0 59717  11100.000000  0       -330283.513       1129009.330      -6974053.419
10 0 59717  11130.000000  0       -110535.427       1074010.222      -6989416.115
10 0 59717  11160.000000  0        109078.688       1016971.623      -6997708.804
10 0 59717  11190.000000  0        328329.506        957951.798      -6998922.421
10 0 59717  11220.000000  0        546988.275        897011.997      -6993054.961
10 0 59717  11250.000000  0        764827.060        834216.398      -6980111.481
10 0 59717  11280.000000  0        981618.971        769632.042      -6960104.101
10 0 59717  11310.000000  0       1197138.399        703328.761      -6933051.988
10 0 59717  11340.000000  0       1411161.236        635379.107      -6898981.347
10 0 59717  11370.000000  0       1623465.112        565858.277      -6857925.398
10 0 59717  11400.000000  0       1833829.616        494844.029      -6809924.350
10 0 59717  11430.000000  0       2042036.520        422416.604      -6755025.374
10 0 59717  11460.000000  0       2247870.009        348658.636      -6693282.560
10 0 59717  11490.000000  0       2451116.901        273655.069      -6624756.876
10 0 59717  11520.000000  0       2651566.870        197493.058      -6549516.113
10 0 59717  11550.000000  0       2849012.663        120261.871      -6467634.826
10 0 59717  11580.000000  0       3043250.309         42052.793      -6379194.266
10 0 59717  11610.000000  0       3234079.333        -37040.983      -6284282.311
10 0 59717  11640.000000  0       3421302.959       -116924.460      -6182993.391
10 0 59717  11670.000000  0       3604728.318       -197500.946      -6075428.400
10 0 59717  11700.000000  0       3784166.647       -278672.164      -5961694.613
10 0 59717  11730.000000  0       3959433.487       -360338.365      -5841905.588
10 0 59717  11760.000000  0       4130348.878       -442398.448      -5716181.068
10 0 59717  11790.000000  0       4296737.553       -524750.080      -5584646.877
10 0 59717  11820.000000  0       4458429.129       -607289.821      -5447434.800
10 0 59717  11850.000000  0       4615258.286       -689913.247      -5304682.460
10 0 59717  11880.000000  0       4767064.945       -772515.080      -5156533.191
10 0 59717  11910.000000  0       4913694.440       -854989.314      -5003135.905
10 0 59717  11940.000000  0       5054997.689       -937229.348      -4844644.948
10 0 59717  11970.000000  0       5190831.347      -1019128.116      -4681219.955
10 0 59717  12000.000000  0       5321057.971      -1100578.227      -4513025.699
10 0 59717  12030.000000  0       5445546.165      -1181472.094      -4340231.932
10 0 59717  12060.000000  0       5564170.726      -1261702.077      -4163013.221
10 0 59717  12090.000000  0       5676812.783      -1341160.618      -3981548.774
10 0 59717  12120.000000  0       5783359.927      -1419740.381      -3796022.270
10 0 59717  12150.000000  0       5883706.338      -1497334.393      -3606621.673
10 0 59717  12180.000000  0       5977752.897      -1573836.182      -3413539.047
10 0 59717  12210.000000  0       6065407.303      -1649139.923      -3216970.363
10 0 59717  12240.000000  0       6146584.172      -1723140.575      -3017115.306
10 0 59717  12270.000000  0       6221205.138      -1795734.021      -2814177.067
10 0 59717  12300.000000  0       6289198.932      -1866817.217      -2608362.140
10 0 59717  12330.000000  0       6350501.471      -1936288.322      -2399880.105
10 0 59717  12360.000000  0       6405055.919      -2004046.844      -2188943.423
10 0 59717  12390.000000  0       6452812.757      -2069993.776      -1975767.204
10 0 59717  12420.000000  0       6493729.835      -2134031.734      -1760568.999
10 0 59717  12450.000000  0       6527772.419      -2196065.090      -1543568.561
10 0 59717  12480.000000  0       6554913.232      -2256000.111      -1324987.626
10 0 59717  12510.000000  0       6575132.476      -2313745.088      -1105049.673
10 0 59717  12540.000000  0       6588417.861      -2369210.468       -883979.693
10 0 59717  12570.000000  0       6594764.609      -2422308.987       -662003.954
10 0 59717  12600.000000  0       6594175.461      -2472955.790       -439349.753
10 0 59717  12630.000000  0       6586660.670      -2521068.561       -216245.185
10 0 59717  12660.000000  0       6572237.979      -2566567.639          7081.107
10 0 59717  12690.000000  0       6550932.604      -2609376.138        230400.171
10 0 59717  12720.000000  0       6522777.198      -2649420.056        453482.993
10 0 59717  12750.000000  0       6487811.811      -2686628.395        676100.739
10 0 59717  12780.000000  0       6446083.834      -2720933.260        898025.004
10 0 59717  12810.000000  0       6397647.945      -2752269.970       1119028.054
10 0 59717  12840.000000  0       6342566.030      -2780577.156       1338883.077
10 0 59717  12870.000000  0       6280907.108      -2805796.855       1557364.422
10 0 59717  12900.000000  0       6212747.238      -2827874.605       1774247.837
10 0 59717  12930.000000  0       6138169.426      -2846759.528       1989310.708
10 0 59717  12960.000000  0       6057263.528      -2862404.419       2202332.295
10 0 59717  12990.000000  0       5970126.134      -2874765.820       2413093.971
10 0 59717  13020.000000  0       5876860.455      -2883804.100       2621379.459
10 0 59717  13050.000000  0       5777576.184      -2889483.515       2826975.061
10 0 59717  13080.000000  0       5672389.361      -2891772.274       3029669.884
10 0 59717  13110.000000  0       5561422.234      -2890642.594       3229256.061
10 0 59717  13140.000000  0       5444803.103      -2886070.759       3425528.964
10 0 59717  13170.000000  0       5322666.170      -2878037.161       3618287.423
10 0 59717  13200.000000  0       5195151.380      -2866526.350       3807333.933
10 0 59717  13230.000000  0       5062404.248      -2851527.067       3992474.860
10 0 59717  13260.000000  0       4924575.691      -2833032.277       4173520.641
10 0 59717  13290.000000  0       4781821.851      -2811039.203       4350285.986
10 0 59717  13320.000000  0       4634303.907      -2785549.343       4522590.069
10 0 59717  13350.000000  0       4482187.884      -2756568.492       4690256.719
10 0 59717  13380.000000  0       4325644.455      -2724106.754       4853114.603
10 0 59717  13410.000000  0       4164848.737      -2688178.545       5010997.395
10 0 59717  13440.000000  0       3999980.085      -2648802.592       5163743.950
10 0 59717  13470.000000  0       3831221.881      -2606001.931       5311198.464
10 0 59717  13500.000000  0       3658761.324      -2559803.894       5453210.626
10 0 59717  13530.000000  0       3482789.212      -2510240.092       5589635.769
10 0 59717  13560.000000  0       3303499.725      -2457346.394       5720335.015
10 0 59717  13590.000000  0       3121090.206      -2401162.904       5845175.412
10 0 59717  13620.000000  0       2935760.935      -2341733.928       5964030.064
10 0 59717  13650.000000  0       2747714.901      -2279107.938       6076778.257
10 0 59717  13680.000000  0       2557157.573      -2213337.531       6183305.578
10 0 59717  13710.000000  0       2364296.669      -2144479.384       6283504.018
10 0 59717  13740.000000  0       2169341.928      -2072594.201       6377272.081
10 0 59717  13770.000000  0       1972504.875      -1997746.659       6464514.881
10 0 59717  13800.000000  0       1773998.587      -1920005.346       6545144.234
10 0 59717  13830.000000  0       1574037.459      -1839442.698       6619078.740
10 0 59717  13860.000000  0       1372836.962      -1756134.924       6686243.858
10 0 59717  13890.000000  0       1170613.412      -1670161.933       6746571.973
10 0 59717  13920.000000  0        967583.738      -1581607.258       6800002.459
10 0 59717  13950.000000  0        763965.244      -1490557.967       6846481.733
10 0 59717  13980.000000  0        559975.375      -1397104.577       6885963.307
10 0 59717  14010.000000  0        355831.487      -1301340.963       6918407.825
10 0 59717  14040.000000  0        151750.610      -1203364.258       6943783.099
10 0 59717  14070.000000  0        -52050.783      -1103274.756       6962064.134
10 0 59717  14100.000000  0       -255356.999      -1001175.804       6973233.147
10 0 59717  14130.000000  0       -457953.358       -897173.701       6977279.582
10 0 59717  14160.000000  0       -659626.415       -791377.582       6974200.121
10 0 59717  14190.000000  0       -860164.192       -683899.303       6963998.681
10 0 59717  14220.000000  0      -1059356.392       -574853.320       6946686.409
10 0 59717  14250.000000  0      -1256994.628       -464356.568       6922281.664
10 0 59717  14280.000000  0      -1452872.632       -352528.333       6890809.996
10 0 59717  14310.000000  0      -1646786.474       -239490.127       6852304.125
10 0 59717  14340.000000  0      -1838534.769       -125365.552       6806803.901
10 0 59717  14370.000000  0      -2027918.895        -10280.166       6754356.269
99
